[Satellite]
VERSION=1.1
NAME=FLOCK 2E'-12
NICKNAME=FLOCK 2E'-12
TLE1=1 41578U 98067KC  18021.03789159  .00156461  20869-4  37554-3 0  9998
TLE2=2 41578  51.6219 326.6001 0003009 129.2649 230.8627 15.96179140 93715
